IRIDIUM 36 [-]          
1 24967U 97056C   24104.21551007  .00000563  00000+0  18432-3 0  9991
2 24967  86.4011 353.5709 0002102  82.1290 278.0146 14.36719504390469
IRIDIUM 39 [-]          
1 25042U 97069D   24104.32327777  .00000953  00000+0  25189-3 0  9997
2 25042  86.3957  35.2957 0016481 305.8008  54.1663 14.47825337386734
IRIDIUM 38 [-]          
1 25043U 97069E   24104.38270753  .00000727  00000+0  23792-3 0  9992
2 25043  86.3968  53.8784 0004057  78.3837 281.7816 14.37161059384200
IRIDIUM 42 [-]          
1 25077U 97077A   24104.35896351  .00000656  00000+0  22154-3 0  9995
2 25077  86.3961  59.5331 0002911  86.2286 273.9244 14.35469711379514
IRIDIUM 44 [-]          
1 25078U 97077B   24104.35293601  .00000707  00000+0  22135-3 0  9991
2 25078  86.3985  42.6134 0003052  48.9059 311.2403 14.39298883381852
IRIDIUM 45 [-]          
1 25104U 97082A   24104.48057607  .00021206  00000+0  12245-2 0  9992
2 25104  86.3724 252.5753 0166368 114.5059 247.3623 15.01148728387145
IRIDIUM 24 [-]          
1 25105U 97082B   24104.52106746  .00000734  00000+0  22188-3 0  9998
2 25105  86.3870 262.2439 0013253  62.2934 297.9609 14.41063334381312
IRIDIUM 51 [-]          
1 25262U 98018A   24104.44036330  .00019211  00000+0  92778-3 0  9996
2 25262  86.3950 262.6005 0151960  61.8179 299.8311 15.08814030381640
